0 OPS 9346 (IDSCS 25)
1 03289U 68050F   13281.73535017 -.00000093  00000-0  10000-3 0  9848
2 03289 002.0479 309.0909 0051535 148.4884 211.1519 01.07287532 89543
0 OPS 9346 (IDSCS 25)
1 03289U 68050F   13283.60114247  .00000000  00000-0  10000-3 0  9863
2 03289 002.0567 309.5420 0051035 148.6602 211.1705 01.07285396 89564
0 OPS 9346 (IDSCS 25)
1 03289U 68050F   13288.25990352 -.00000090  00000-0  10000-3 0  9868
2 03289 002.0395 309.0647 0051233 149.3283 210.4009 01.07287162 89610
0 OPS 9346 (IDSCS 25)
1 03289U 68050F   13294.78410857 -.00000070  00000-0  10000-3 0  9879
2 03289 002.0328 309.0637 0051141 149.5159 210.1487 01.07286949 89683
